NORAD_CAT_ID,OBJECT_NAME,OBJECT_TYPE,EPOCH,MEAN_MOTION,ECCENTRICITY,INCLINATION,RA_OF_ASC_NODE,ARG_OF_PERICENTER,MEAN_ANOMALY,BSTAR,MEAN_MOTION_DOT,MEAN_MOTION_DDOT,TLE_LINE0,TLE_LINE1,TLE_LINE2,SEMIMAJOR_AXIS,PERIOD,APOGEE,PERIGEE,DECAYED
52112.0,STARLINK-3734,PAYLOAD,2023-11-25 03:16:47,15.08852458,0.0001446,53.2154,230.0638,100.3784,259.7372,0.00043734,6.681e-05,0.0,0 STARLINK-3734,1 52112U 22029AA  23329.13665933  .00006681  00000-0  43734-3 0  9996,2 52112  53.2154 230.0638 0001446 100.3784 259.7372 15.08852458 94647,6917.842,95.437,540.708,538.707,0.0
52112.0,STARLINK-3734,PAYLOAD,2023-11-25 22:21:25,15.08852939,0.0001565,53.2151,226.49,95.3291,264.7879,0.00045108,6.901e-05,0.0,0 STARLINK-3734,1 52112U 22029AA  23329.93154238  .00006901  00000-0  45108-3 0  9997,2 52112  53.2151 226.4900 0001565  95.3291 264.7879 15.08852939 94768,6917.841,95.437,540.788,538.623,0.0
52112.0,STARLINK-3734,PAYLOAD,2023-11-25 23:56:48,15.08859887,0.000172,53.2164,226.1967,90.4944,269.6245,0.00054249,8.361e-05,0.0,0 STARLINK-3734,1 52112U 22029AA  23329.99778010  .00008361  00000-0  54249-3 0  9991,2 52112  53.2164 226.1967 0001720  90.4944 269.6245 15.08859887 94777,6917.82,95.436,540.874,538.495,0.0
52112.0,STARLINK-3734,PAYLOAD,2023-11-26 22:12:11,15.08849634,0.000148,53.215,222.0337,104.5206,255.595,1.7817e-05,-4e-08,0.0,0 STARLINK-3734,1 52112U 22029AA  23330.92513516 -.00000004  00000-0  17817-4 0  9992,2 52112  53.2150 222.0337 0001480 104.5206 255.5950 15.08849634 94911,6917.851,95.437,540.74,538.692,0.0
52112.0,STARLINK-3734,PAYLOAD,2023-11-27 02:58:21,15.0884885,0.000156,53.2153,221.143,110.069,250.047,1.8681e-05,9e-08,0.0,0 STARLINK-3734,1 52112U 22029AA  23331.12385424  .00000009  00000-0  18681-4 0  9994,2 52112  53.2153 221.1430 0001560 110.0690 250.0470 15.08848850 94945,6917.853,95.437,540.798,538.639,0.0
52112.0,STARLINK-3734,PAYLOAD,2023-11-27 17:16:49,15.08835016,0.0002192,53.2151,218.4651,106.0391,254.0843,-0.00020644,-3.572e-05,0.0,0 STARLINK-3734,1 52112U 22029AA  23331.72001951 -.00003572  00000-0 -20644-3 0  9991,2 52112  53.2151 218.4651 0002192 106.0391 254.0843 15.08835016 95031,6917.896,95.438,541.277,538.244,0.0
52112.0,STARLINK-3734,PAYLOAD,2023-11-27 22:02:59,15.08834547,0.0001551,53.2159,217.5755,94.5469,265.57,-0.00015965,-2.828e-05,0.0,0 STARLINK-3734,1 52112U 22029AA  23331.91874196 -.00002828  00000-0 -15965-3 0  9994,2 52112  53.2159 217.5755 0001551  94.5469 265.5700 15.08834547 95069,6917.897,95.438,540.835,538.689,0.0
52112.0,STARLINK-3734,PAYLOAD,2023-11-27 23:38:22,15.08832754,0.0001582,53.2162,217.2782,95.9524,264.1649,-4.0285e-05,-9.29e-06,0.0,0 STARLINK-3734,1 52112U 22029AA  23331.98498293 -.00000929  00000-0 -40285-4 0  9995,2 52112  53.2162 217.2782 0001582  95.9524 264.1649 15.08832754 95077,6917.903,95.438,540.862,538.673,0.0
52112.0,STARLINK-3734,PAYLOAD,2023-11-28 20:18:23,15.08841903,0.000159,53.2163,213.4123,107.49,252.6266,0.00031501,4.729e-05,0.0,0 STARLINK-3734,1 52112U 22029AA  23332.84610652  .00004729  00000-0  31501-3 0  9996,2 52112  53.2163 213.4123 0001590 107.4900 252.6266 15.08841903 95209,6917.875,95.437,540.84,538.64,0.0
52112.0,STARLINK-3734,PAYLOAD,2023-11-29 20:09:10,15.08839757,0.0001521,53.2155,208.9536,113.3653,246.75,0.00014475,2.016e-05,0.0,0 STARLINK-3734,1 52112U 22029AA  23333.83970928  .00002016  00000-0  14475-3 0  9999,2 52112  53.2155 208.9536 0001521 113.3653 246.7500 15.08839757 95357,6917.881,95.438,540.798,538.694,0.0
52112.0,STARLINK-3734,PAYLOAD,2023-11-30 19:59:58,15.08834755,0.0001299,53.2146,204.4908,105.7585,254.355,4.3656e-05,4.07e-06,0.0,0 STARLINK-3734,1 52112U 22029AA  23334.83331519  .00000407  00000-0  43656-4 0  9993,2 52112  53.2146 204.4908 0001299 105.7585 254.3550 15.08834755 95502,6917.896,95.438,540.66,538.863,0.0
52112.0,STARLINK-3734,PAYLOAD,2023-12-01 00:46:07,15.08843823,0.000144,53.2162,203.5963,83.4483,276.6673,0.00012469,1.697e-05,0.0,0 STARLINK-3734,1 52112U 22029AA  23335.03203220  .00001697  00000-0  12469-3 0  9992,2 52112  53.2162 203.5963 0001440  83.4483 276.6673 15.08843823 95530,6917.869,95.437,540.73,538.738,0.0
52112.0,STARLINK-3734,PAYLOAD,2023-12-01 21:26:08,15.08850972,0.0001743,53.2163,199.733,76.286,283.8326,0.00039081,5.939e-05,0.0,0 STARLINK-3734,1 52112U 22029AA  23335.89315239  .00005939  00000-0  39081-3 0  9992,2 52112  53.2163 199.7330 0001743  76.2860 283.8326 15.08850972 95662,6917.847,95.437,540.918,538.506,0.0
52112.0,STARLINK-3734,PAYLOAD,2023-12-02 00:36:53,15.08867003,0.0001414,53.2155,199.1372,100.634,259.4811,0.00064009,9.921e-05,0.0,0 STARLINK-3734,1 52112U 22029AA  23336.02562455  .00009921  00000-0  64009-3 0  9995,2 52112  53.2155 199.1372 0001414 100.6340 259.4811 15.08867003 95686,6917.798,95.436,540.641,538.685,0.0
52112.0,STARLINK-3734,PAYLOAD,2023-12-02 19:41:32,15.08843013,0.0001498,53.2168,195.5652,96.4203,263.696,2.9085e-05,1.75e-06,0.0,0 STARLINK-3734,1 52112U 22029AA  23336.82051019  .00000175  00000-0  29085-4 0  9990,2 52112  53.2168 195.5652 0001498  96.4203 263.6960 15.08843013 95804,6917.871,95.437,540.772,538.7,0.0
52112.0,STARLINK-3734,PAYLOAD,2023-12-02 21:16:55,15.08842953,0.0001554,53.2161,195.2691,94.7212,265.3958,2.4301e-05,9.9e-07,0.0,0 STARLINK-3734,1 52112U 22029AA  23336.88675016  .00000099  00000-0  24301-4 0  9996,2 52112  53.2161 195.2691 0001554  94.7212 265.3958 15.08842953 95810,6917.871,95.437,540.811,538.661,0.0
52112.0,STARLINK-3734,PAYLOAD,2023-12-03 14:46:10,15.0883432,0.0001571,53.2154,191.997,103.4211,256.6956,-0.00023219,-3.981e-05,0.0,0 STARLINK-3734,1 52112U 22029AA  23337.61539522 -.00003981  00000-0 -23219-3 0  9990,2 52112  53.2154 191.9970 0001571 103.4211 256.6956 15.08834320 95923,6917.898,95.438,540.85,538.676,0.0
52112.0,STARLINK-3734,PAYLOAD,2023-12-03 19:32:19,15.08837025,0.000147,53.2149,191.1061,88.6829,271.4331,-0.00018444,-3.222e-05,0.0,0 STARLINK-3734,1 52112U 22029AA  23337.81411660 -.00003222  00000-0 -18444-3 0  9996,2 52112  53.2149 191.1061 0001470  88.6829 271.4331 15.08837025 95957,6917.889,95.438,540.771,538.738,0.0
52112.0,STARLINK-3734,PAYLOAD,2023-12-04 00:18:29,15.08831683,0.0001565,53.2152,190.215,107.8426,252.2737,-0.00017425,-3.059e-05,0.0,0 STARLINK-3734,1 52112U 22029AA  23338.01283938 -.00003059  00000-0 -17425-3 0  9990,2 52112  53.2152 190.2150 0001565 107.8426 252.2737 15.08831683 95986,6917.906,95.438,540.853,538.688,0.0
52112.0,STARLINK-3734,PAYLOAD,2023-12-05 00:09:16,15.08838586,0.0001536,53.2161,185.7549,91.5288,268.5881,0.00012653,1.726e-05,0.0,0 STARLINK-3734,1 52112U 22029AA  23339.00643698  .00001726  00000-0  12653-3 0  9998,2 52112  53.2161 185.7549 0001536  91.5288 268.5881 15.08838586 96137,6917.885,95.438,540.812,538.687,0.0
52112.0,STARLINK-3734,PAYLOAD,2023-12-05 14:27:44,15.0883605,0.0001303,53.2159,183.0797,98.3435,261.7705,0.0001477,2.063e-05,0.0,0 STARLINK-3734,1 52112U 22029AA  23339.60259901  .00002063  00000-0  14770-3 0  9991,2 52112  53.2159 183.0797 0001303  98.3435 261.7705 15.08836050 96225,6917.892,95.438,540.659,538.856,0.0
52112.0,STARLINK-3734,PAYLOAD,2023-12-05 22:24:39,15.08840807,0.0001374,53.2157,181.5926,90.151,269.964,0.00017733,2.535e-05,0.0,0 STARLINK-3734,1 52112U 22029AA  23339.93379622  .00002535  00000-0  17733-3 0  9996,2 52112  53.2157 181.5926 0001374  90.1510 269.9640 15.08840807 96270,6917.878,95.438,540.693,538.792,0.0
52112.0,STARLINK-3734,PAYLOAD,2023-12-06 22:15:27,15.0883626,0.0001474,53.2157,177.1315,86.7764,273.3396,5.1118e-06,-2.07e-06,0.0,0 STARLINK-3734,1 52112U 22029AA  23340.92740193 -.00000207  00000-0  51118-5 0  9994,2 52112  53.2157 177.1315 0001474  86.7764 273.3396 15.08836260 96428,6917.892,95.438,540.777,538.737,0.0
52112.0,STARLINK-3734,PAYLOAD,2023-12-08 12:24:42,15.088417,0.0001414,53.2156,169.9944,94.1837,265.9316,5.9138e-05,6.53e-06,0.0,0 STARLINK-3734,1 52112U 22029AA  23342.51715859  .00000653  00000-0  59138-4 0  9995,2 52112  53.2156 169.9944 0001414  94.1837 265.9316 15.08841700 96662,6917.875,95.437,540.718,538.762,0.0
52112.0,STARLINK-3734,PAYLOAD,2023-12-08 15:35:28,15.0884387,0.0001465,53.2155,169.4005,88.2593,271.8567,7.4425e-05,8.97e-06,0.0,0 STARLINK-3734,1 52112U 22029AA  23342.64963685  .00000897  00000-0  74425-4 0  9997,2 52112  53.2155 169.4005 0001465  88.2593 271.8567 15.08843870 96689,6917.869,95.437,540.747,538.72,0.0
52112.0,STARLINK-3734,PAYLOAD,2023-12-10 18:27:49,15.08840143,0.0001346,53.2152,159.8871,80.6758,279.4386,6.0545e-05,6.76e-06,0.0,0 STARLINK-3734,1 52112U 22029AA  23344.76931898  .00000676  00000-0  60545-4 0  9996,2 52112  53.2152 159.8871 0001346  80.6758 279.4386 15.08840143 97007,6917.88,95.438,540.676,538.814,0.0
52112.0,STARLINK-3734,PAYLOAD,2023-12-11 18:18:36,15.08839012,0.0001329,53.2159,155.4229,91.6322,268.4822,3.1915e-05,2.2e-06,0.0,0 STARLINK-3734,1 52112U 22029AA  23345.76292040  .00000220  00000-0  31915-4 0  9990,2 52112  53.2159 155.4229 0001329  91.6322 268.4822 15.08839012 97155,6917.883,95.438,540.668,538.829,0.0
52112.0,STARLINK-3734,PAYLOAD,2023-12-12 18:09:23,15.08838607,0.0001305,53.2163,150.9605,90.7463,269.3679,2.1017e-05,4.7e-07,0.0,0 STARLINK-3734,1 52112U 22029AA  23346.75652131  .00000047  00000-0  21017-4 0  9990,2 52112  53.2163 150.9605 0001305  90.7463 269.3679 15.08838607 97304,6917.885,95.438,540.652,538.847,0.0
52112.0,STARLINK-3734,PAYLOAD,2023-12-13 14:49:24,15.08839457,0.0001283,53.2162,147.0934,85.9904,274.1235,5.0249e-05,5.12e-06,0.0,0 STARLINK-3734,1 52112U 22029AA  23347.61764016  .00000512  00000-0  50249-4 0  9998,2 52112  53.2162 147.0934 0001283  85.9904 274.1235 15.08839457 97436,6917.882,95.438,540.635,538.859,0.0
52112.0,STARLINK-3734,PAYLOAD,2023-12-13 18:00:10,15.08841342,0.0001305,53.2165,146.5007,86.8607,273.2534,6.5216e-05,7.5e-06,0.0,0 STARLINK-3734,1 52112U 22029AA  23347.75011880  .00000750  00000-0  65216-4 0  9991,2 52112  53.2165 146.5007 0001305  86.8607 273.2534 15.08841342 97459,6917.876,95.437,540.644,538.839,0.0
